0 THOR ABLESTAR DEB
1 04014U 61015JM  13282.30599541  .00000126  00000-0  49454-3 0  1815
2 04014 067.6277 239.9600 0817855 118.5652 028.0343 12.27315755345164
0 THOR ABLESTAR DEB
1 04014U 61015JM  13284.00196921  .00000094  00000-0  39999-3 0  1827
2 04014 067.6273 236.9326 0817926 117.4458 321.4496 12.27316979345374
0 THOR ABLESTAR DEB
1 04014U 61015JM  13285.32359535  .00000198  00000-0  70322-3 0  1836
2 04014 067.6281 234.5725 0817922 116.5792 040.8743 12.27318957345530
0 THOR ABLESTAR DEB
1 04014U 61015JM  13286.29903735  .00000452  00000-0  14426-2 0  1846
2 04014 067.6279 232.8310 0818096 115.9208 030.7811 12.27326355345654
0 THOR ABLESTAR DEB
1 04014U 61015JM  13287.51228366  .00000674  00000-0  20859-2 0  1856
2 04014 067.6276 230.6653 0818303 115.1079 351.4027 12.27331543345800
0 THOR ABLESTAR DEB
1 04014U 61015JM  13288.97192015  .00001056  00000-0  31987-2 0  1868
2 04014 067.6278 228.0591 0818151 114.1722 320.6678 12.27338971345980
0 THOR ABLESTAR DEB
1 04014U 61015JM  13290.29259355  .00001233  00000-0  37112-2 0  1871
2 04014 067.6277 225.7012 0818262 113.3015 035.9851 12.27342864346144
0 THOR ABLESTAR DEB
1 04014U 61015JM  13290.92625733  .00001525  00000-0  45579-2 0  1889
2 04014 067.6278 224.5698 0818376 112.8823 315.8210 12.27348905346229
0 THOR ABLESTAR DEB
1 04014U 61015JM  13292.15964845  .00001837  00000-0  54608-2 0  1896
2 04014 067.6278 222.3683 0818528 112.0675 005.5278 12.27352152346377
0 THOR ABLESTAR DEB
1 04014U 61015JM  13293.22487198  .00002008  00000-0  59526-2 0  1903
2 04014 067.6277 220.4659 0818763 111.3634 032.2034 12.27355509346507
0 THOR ABLESTAR DEB
1 04014U 61015JM  13295.16471302  .00001848  00000-0  54843-2 0  1917
2 04014 067.6276 217.0020 0819037 110.0826 323.3678 12.27355958346746
